ONEWEB-0128             
1 47274U 20100S   24130.94146806  .00000448  00000+0  12102-2 0  9998
2 47274  87.8939 143.6242 0002149  99.7577 260.3794 13.12442378163974
ONEWEB-0129             
1 47275U 20100T   24130.53963299 -.00000154  00000+0 -46338-3 0  9992
2 47275  87.8934 143.6733 0003526  76.4015 283.7506 13.12444435163857
ONEWEB-0130             
1 47276U 20100U   24130.94941402  .00000419  00000+0  11295-2 0  9995
2 47276  87.8931 143.6004 0002176  92.9245 267.2132 13.12442421163871
ONEWEB-0131             
1 47277U 20100V   24130.94623566  .00000479  00000+0  12948-2 0  9996
2 47277  87.8935 143.6149 0002037  95.2821 264.8540 13.12443849163914
ONEWEB-0132             
1 47278U 20100W   24130.74609979 -.00000290  00000+0 -84190-3 0  9999
2 47278  87.8933 143.6565 0001783  95.6022 264.5310 13.12437941163782
ONEWEB-0133             
1 47279U 20100X   24130.53326323 -.00000524  00000+0 -14924-2 0  9993
2 47279  87.8929 143.6993 0002001  96.0104 264.1252 13.12444684163911
ONEWEB-0134             
1 47280U 20100Y   24130.73181642  .00000205  00000+0  53479-3 0  9993
2 47280  87.8927 143.6484 0002254  96.2175 263.9210 13.12441790163912
ONEWEB-0135             
1 47281U 20100Z   24130.92874209 -.00000278  00000+0 -80778-3 0  9997
2 47281  87.8933 143.6225 0002093  93.3850 266.7518 13.12443643163968
